ONEWEB-0377             
1 49303U 21090AA  23360.30736081  .00000137  00000+0  30474-3 0  9994
2 49303  87.9192  94.3594 0001905 100.2426 259.8923 13.20774628111204
ONEWEB-0378             
1 49304U 21090AB  23360.28273111  .00000132  00000+0  29382-3 0  9993
2 49304  87.9204  94.3776 0001370 110.2616 249.8664 13.20773704110461
ONEWEB-0379             
1 49305U 21090AC  23360.36751794  .00000166  00000+0  41450-3 0  9998
2 49305  87.8973 109.6151 0001502 110.1864 249.9427 13.14503239108824
ONEWEB-0380             
1 49306U 21090AD  23360.37312311  .00000105  00000+0  22991-3 0  9990
2 49306  87.9198 124.8778 0001644 101.8388 258.2930 13.19724450107213
ONEWEB-0381             
1 49307U 21090AE  23360.53131061 -.00000084  00000+0 -23945-3 0  9998
2 49307  87.9217  94.3209 0001818 102.9581 257.1755 13.20772663110540
ONEWEB-0382             
1 49308U 21090AF  23360.29142661  .00000205  00000+0  47326-3 0  9992
2 49308  87.9192  94.3667 0001260  99.2258 260.9018 13.20775822110501
ONEWEB-0383             
1 49309U 21090AG  23360.36116407  .00000100  00000+0  23532-3 0  9997
2 49309  87.8982 109.6067 0001321 109.2895 250.8378 13.14504632108853
ONEWEB-0384             
1 49310U 21090AH  23360.28825513  .00000163  00000+0  36848-3 0  9998
2 49310  87.9202  94.3760 0001140  95.0693 265.0570 13.20774734110515
